QIANFAN-17              
1 60395U 24140S   25242.15437185  .00000111  00000+0  15348-3 0  9999
2 60395  88.9829 310.2490 0016639 142.7233 217.5077 13.50966866 54014
QIANFAN-18              
1 60396U 24140T   25242.13388034  .00000104  00000+0  14226-3 0  9992
2 60396  88.9821 309.7928 0016336 127.2513 233.0131 13.50968687 53408
QIANFAN-19              
1 61552U 24185A   25242.07898646  .00000516  00000+0  26350-3 0  9992
2 61552  88.9767  89.9499 0004976 288.9946  71.0701 14.14135875 54875
QIANFAN-20              
1 61553U 24185B   25242.13305573  .00000491  00000+0  27746-3 0  9994
2 61553  88.9766  90.1621 0005010 336.3613  23.7340 14.08688575 54769
QIANFAN-21              
1 61554U 24185C   25242.07903351  .00000706  00000+0  31081-3 0  9992
2 61554  88.9682  89.2538 0010548 356.0406   4.0700 14.22392255 55096
QIANFAN-22              
1 61555U 24185D   25242.12847094  .00000242  00000+0  19833-3 0  9996
2 61555  88.9752  90.7229 0005633 331.6203  28.4661 13.86246603 54440
QIANFAN-23              
1 61556U 24185E   25242.13079181  .00000667  00000+0  33066-3 0  9997
2 61556  88.9760  89.8021 0006072 304.2776  55.7837 14.16111211 54941
QIANFAN-24              
1 61557U 24185F   25242.09988897  .00000733  00000+0  31579-3 0  9997
2 61557  88.9741  89.3820 0007479 284.8881  75.1483 14.23592305 55135
